CTC2_L_00465001-01
1 10000U 22746BJ  26075.70046296  .00000000  00000+0  00000-0 0  9995
2 10000  41.5000   0.0000 0000000   0.0000   0.0000 15.17631862    14
CTC2_L_00465002-01
1 10001U 26218AU  26075.70046296  .00000000  00000+0  00000-0 0  9994
2 10001  41.5000  12.0000 0000000   0.0000  48.0000 15.17631862    10
CTC2_L_00465003-01
1 10002U 22949LM  26075.70046296  .00000000  00000+0  00000-0 0  9992
2 10002  41.5000  24.0000 0000000   0.0000  96.0000 15.17631862    17
CTC2_L_00465004-01
1 10003U 24992DP  26075.70046296  .00000000  00000+0  00000-0 0  9993
2 10003  41.5000  36.0000 0000000   0.0000 144.0000 15.17631862    15
CTC2_L_00465005-01
1 10004U 23361MA  26075.70046296  .00000000  00000+0  00000-0 0  9993
2 10004  41.5000  48.0000 0000000   0.0000 192.0000 15.17631862    12
CTC2_L_00465006-01
1 10005U 23452H   26075.70046296  .00000000  00000+0  00000-0 0  9995
2 10005  41.5000  60.0000 0000000   0.0000 240.0000 15.17631862    11
CTC2_L_00465007-01
1 10006U 26021WV  26075.70046296  .00000000  00000+0  00000-0 0  9991
2 10006  41.5000  72.0000 0000000   0.0000 288.0000 15.17631862    17
CTC2_L_00465008-01
1 10007U 25551KZ  26075.70046296  .00000000  00000+0  00000-0 0  9999
2 10007  41.5000  84.0000 0000000   0.0000 336.0000 15.17631862    15
CTC2_L_00465009-01
1 10008U 25641RH  26075.70046296  .00000000  00000+0  00000-0 0  9990
2 10008  41.5000  96.0000 0000000   0.0000  24.0000 15.17631862    13
CTC2_L_00465010-01
1 10009U 23145LX  26075.70046296  .00000000  00000+0  00000-0 0  9998
2 10009  41.5000 108.0000 0000000   0.0000  72.0000 15.17631862    11
CTC2_L_00465011-01
1 10010U 26879UC  26075.70046296  .00000000  00000+0  00000-0 0  9997
2 10010  41.5000 120.0000 0000000   0.0000 120.0000 15.17631862    11
CTC2_L_00465012-01
1 10011U 22843FV  26075.70046296  .00000000  00000+0  00000-0 0  9995
2 10011  41.5000 132.0000 0000000   0.0000 168.0000 15.17631862    17
CTC2_L_00465013-01
1 10012U 23192KB  26075.70046296  .00000000  00000+0  00000-0 0  9994
2 10012  41.5000 144.0000 0000000   0.0000 216.0000 15.17631862    15
CTC2_L_00465014-01
1 10013U 22708HH  26075.70046296  .00000000  00000+0  00000-0 0  9997
2 10013  41.5000 156.0000 0000000   0.0000 264.0000 15.17631862    12
CTC2_L_00465015-01
1 10014U 24405HQ  26075.70046296  .00000000  00000+0  00000-0 0  9994
2 10014  41.5000 168.0000 0000000   0.0000 312.0000 15.17631862    10
CTC2_L_00465016-01
1 10015U 25542AQ  26075.70046296  .00000000  00000+0  00000-0 0  9998
2 10015  41.5000 180.0000 0000000   0.0000   0.0000 15.17631862    19
CTC2_L_00465017-01
1 10016U 26746TB  26075.70046296  .00000000  00000+0  00000-0 0  9996
2 10016  41.5000 192.0000 0000000   0.0000  48.0000 15.17631862    15
CTC2_L_00465018-01
1 10017U 26368OL  26075.70046296  .00000000  00000+0  00000-0 0  9997
2 10017  41.5000 204.0000 0000000   0.0000  96.0000 15.17631862    13
CTC2_L_00465019-01
1 10018U 25896VE  26075.70046296  .00000000  00000+0  00000-0 0  9993
2 10018  41.5000 216.0000 0000000   0.0000 144.0000 15.17631862    11
CTC2_L_00465020-01
1 10019U 24020MK  26075.70046296  .00000000  00000+0  00000-0 0  9992
2 10019  41.5000 228.0000 0000000   0.0000 192.0000 15.17631862    18
CTC2_L_00465021-01
1 10020U 25010UA  26075.70046296  .00000000  00000+0  00000-0 0  9994
2 10020  41.5000 240.0000 0000000   0.0000 240.0000 15.17631862    18
CTC2_L_00465022-01
1 10021U 23148MX  26075.70046296  .00000000  00000+0  00000-0 0  9995
2 10021  41.5000 252.0000 0000000   0.0000 288.0000 15.17631862    14
CTC2_L_00465023-01
1 10022U 24122SR  26075.70046296  .00000000  00000+0  00000-0 0  9999
2 10022  41.5000 264.0000 0000000   0.0000 336.0000 15.17631862    12
CTC2_L_00465024-01
1 10023U 24721DO  26075.70046296  .00000000  00000+0  00000-0 0  9995
2 10023  41.5000 276.0000 0000000   0.0000  24.0000 15.17631862    10
CTC2_L_00465025-01
1 10024U 23109ZA  26075.70046296  .00000000  00000+0  00000-0 0  9995
2 10024  41.5000 288.0000 0000000   0.0000  72.0000 15.17631862    17
CTC2_L_00465026-01
1 10025U 26373JN  26075.70046296  .00000000  00000+0  00000-0 0  9992
2 10025  41.5000 300.0000 0000000   0.0000 120.0000 15.17631862    17
CTC2_L_00465027-01
1 10026U 24507HU  26075.70046296  .00000000  00000+0  00000-0 0  9990
2 10026  41.5000 312.0000 0000000   0.0000 168.0000 15.17631862    13
CTC2_L_00465028-01
1 10027U 26694MW  26075.70046296  .00000000  00000+0  00000-0 0  9990
2 10027  41.5000 324.0000 0000000   0.0000 216.0000 15.17631862    11
CTC2_L_00465029-01
1 10028U 25368EW  26075.70046296  .00000000  00000+0  00000-0 0  9998
2 10028  41.5000 336.0000 0000000   0.0000 264.0000 15.17631862    18
CTC2_L_00465030-01
1 10029U 22811RE  26075.70046296  .00000000  00000+0  00000-0 0  9999
2 10029  41.5000 348.0000 0000000   0.0000 312.0000 15.17631862    16
